NORAD_CAT_ID,OBJECT_NAME,OBJECT_TYPE,EPOCH,MEAN_MOTION,ECCENTRICITY,INCLINATION,RA_OF_ASC_NODE,ARG_OF_PERICENTER,MEAN_ANOMALY,BSTAR,MEAN_MOTION_DOT,MEAN_MOTION_DDOT,TLE_LINE0,TLE_LINE1,TLE_LINE2,SEMIMAJOR_AXIS,PERIOD,APOGEE,PERIGEE,DECAYED
53138.0,STARLINK-4141,PAYLOAD,2024-06-05 17:41:24,15.08842139,0.0001451,53.2177,171.1427,89.8656,270.2502,-8.4371e-06,-4.22e-06,0.0,0 STARLINK-4141,1 53138U 22083G   24157.73709453 -.00000422  00000-0 -84371-5 0  9990,2 53138  53.2177 171.1427 0001451  89.8656 270.2502 15.08842139105143,6917.874,95.437,540.743,538.735,0.0
53138.0,STARLINK-4141,PAYLOAD,2024-06-06 07:59:53,15.08838923,0.0001466,53.2175,168.4664,91.911,268.205,5.4526e-05,5.8e-06,0.0,0 STARLINK-4141,1 53138U 22083G   24158.33325536  .00000580  00000-0  54526-4 0  9994,2 53138  53.2175 168.4664 0001466  91.9110 268.2050 15.08838923105082,6917.884,95.438,540.763,538.735,0.0
53138.0,STARLINK-4141,PAYLOAD,2024-06-07 09:26:03,15.08836051,0.0001323,53.2162,163.7073,91.6058,268.5085,8.1329e-05,1.007e-05,0.0,0 STARLINK-4141,1 53138U 22083G   24159.39309877  .00001007  00000-0  81329-4 0  9997,2 53138  53.2162 163.7073 0001323  91.6058 268.5085 15.08836051105249,6917.892,95.438,540.673,538.842,0.0
53138.0,STARLINK-4141,PAYLOAD,2024-06-07 17:22:59,15.08840403,0.0001313,53.2162,162.2202,88.3151,271.7992,8.6398e-05,1.087e-05,0.0,0 STARLINK-4141,1 53138U 22083G   24159.72429666  .00001087  00000-0  86398-4 0  9992,2 53138  53.2162 162.2202 0001313  88.3151 271.7992 15.08840403105444,6917.879,95.438,540.652,538.836,0.0
53138.0,STARLINK-4141,PAYLOAD,2024-06-08 12:27:36,15.08841521,0.0001363,53.2162,158.6522,87.8946,272.2202,8.69e-05,1.095e-05,0.0,0 STARLINK-4141,1 53138U 22083G   24160.51917705  .00001095  00000-0  86900-4 0  9995,2 53138  53.2162 158.6522 0001363  87.8946 272.2202 15.08841521105564,6917.876,95.437,540.684,538.798,0.0
53138.0,STARLINK-4141,PAYLOAD,2024-06-08 17:13:47,15.08825863,0.0001513,53.216,157.7601,86.3301,273.7864,-4.1409e-05,-9.47e-06,0.0,0 STARLINK-4141,1 53138U 22083G   24160.71791171 -.00000947  00000-0 -41409-4 0  9996,2 53138  53.2160 157.7601 0001513  86.3301 273.7864 15.08825863105444,6917.924,95.438,540.835,538.742,0.0
53138.0,STARLINK-4141,PAYLOAD,2024-06-09 05:56:53,15.0882205,0.000135,53.2159,155.3801,92.4497,267.665,-6.3871e-05,-1.304e-05,0.0,0 STARLINK-4141,1 53138U 22083G   24161.24783953 -.00001304  00000-0 -63871-4 0  9999,2 53138  53.2159 155.3801 0001350  92.4497 267.6650 15.08822050105676,6917.935,95.439,540.734,538.866,0.0
53138.0,STARLINK-4141,PAYLOAD,2024-06-09 23:26:06,15.08838396,0.0001156,53.2161,152.1086,97.1348,262.9775,0.00011046,1.471e-05,0.0,0 STARLINK-4141,1 53138U 22083G   24161.97646981  .00001471  00000-0  11046-3 0  9997,2 53138  53.2161 152.1086 0001156  97.1348 262.9775 15.08838396105788,6917.885,95.438,540.55,538.951,0.0
53138.0,STARLINK-4141,PAYLOAD,2024-06-10 05:47:39,15.08842908,0.0001283,53.2162,150.9195,95.0471,265.0668,0.0001472,2.056e-05,0.0,0 STARLINK-4141,1 53138U 22083G   24162.24142732  .00002056  00000-0  14720-3 0  9995,2 53138  53.2162 150.9195 0001283  95.0471 265.0668 15.08842908105678,6917.872,95.437,540.624,538.849,0.0
53138.0,STARLINK-4141,PAYLOAD,2024-06-10 08:58:25,15.08847076,0.0001215,53.2163,150.3244,94.7787,265.3344,0.00013658,1.887e-05,0.0,0 STARLINK-4141,1 53138U 22083G   24162.37390509  .00001887  00000-0  13658-3 0  9996,2 53138  53.2163 150.3244 0001215  94.7787 265.3344 15.08847076105843,6917.859,95.437,540.564,538.883,0.0
53138.0,STARLINK-4141,PAYLOAD,2024-06-11 08:49:12,15.08858443,0.0001079,53.2149,145.8641,87.9298,272.1818,0.00049117,7.542e-05,0.0,0 STARLINK-4141,1 53138U 22083G   24163.36750681  .00007542  00000-0  49117-3 0  9990,2 53138  53.2149 145.8641 0001079  87.9298 272.1818 15.08858443105994,6917.824,95.436,540.435,538.943,0.0
53138.0,STARLINK-4141,PAYLOAD,2024-06-12 03:53:49,15.08851884,0.0001192,53.216,142.2962,93.8673,266.2456,5.157e-05,5.33e-06,0.0,0 STARLINK-4141,1 53138U 22083G   24164.16238161  .00000533  00000-0  51570-4 0  9993,2 53138  53.2160 142.2962 0001192  93.8673 266.2456 15.08851884105964,6917.844,95.437,540.534,538.884,0.0
53138.0,STARLINK-4141,PAYLOAD,2024-06-12 22:58:27,15.08842565,0.000121,53.2159,138.7257,91.7243,268.3888,-7.0008e-05,-1.402e-05,0.0,0 STARLINK-4141,1 53138U 22083G   24164.95726263 -.00001402  00000-0 -70008-4 0  9990,2 53138  53.2159 138.7257 0001210  91.7243 268.3888 15.08842565106239,6917.873,95.437,540.575,538.9,0.0
53138.0,STARLINK-4141,PAYLOAD,2024-06-13 05:20:00,15.08840776,0.0001193,53.2167,137.5379,91.4502,268.6627,-4.8258e-05,-1.056e-05,0.0,0 STARLINK-4141,1 53138U 22083G   24165.22222812 -.00001056  00000-0 -48258-4 0  9999,2 53138  53.2167 137.5379 0001193  91.4502 268.6627 15.08840776106129,6917.878,95.438,540.568,538.918,0.0
53138.0,STARLINK-4141,PAYLOAD,2024-06-13 08:30:46,15.08840173,0.0001202,53.2168,136.9435,91.3768,268.7362,-5.6919e-05,-1.194e-05,0.0,0 STARLINK-4141,1 53138U 22083G   24165.35470840 -.00001194  00000-0 -56919-4 0  9995,2 53138  53.2168 136.9435 0001202  91.3768 268.7362 15.08840173106296,6917.88,95.438,540.576,538.913,0.0
53138.0,STARLINK-4141,PAYLOAD,2024-06-13 22:49:15,15.08834609,0.0001348,53.2181,134.2688,100.6216,259.4928,3.5028e-05,2.7e-06,0.0,0 STARLINK-4141,1 53138U 22083G   24165.95086808  .00000270  00000-0  35028-4 0  9998,2 53138  53.2181 134.2688 0001348 100.6216 259.4928 15.08834609106387,6917.897,95.438,540.694,538.829,0.0
53138.0,STARLINK-4141,PAYLOAD,2024-06-14 14:43:05,15.0884361,0.0001351,53.2185,131.2955,92.2864,267.8282,9.4972e-05,1.224e-05,0.0,0 STARLINK-4141,1 53138U 22083G   24166.61326221  .00001224  00000-0  94972-4 0  9991,2 53138  53.2185 131.2955 0001351  92.2864 267.8282 15.08843610106483,6917.869,95.437,540.669,538.8,0.0
53138.0,STARLINK-4141,PAYLOAD,2024-06-15 05:01:34,15.08834186,0.0001369,53.2177,128.6194,91.8445,268.2704,7.2635e-05,8.68e-06,0.0,0 STARLINK-4141,1 53138U 22083G   24167.20943019  .00000868  00000-0  72635-4 0  9992,2 53138  53.2177 128.6194 0001369  91.8445 268.2704 15.08834186106570,6917.898,95.438,540.71,538.816,0.0
53138.0,STARLINK-4141,PAYLOAD,2024-06-16 04:52:21,15.08845874,0.0001393,53.2175,124.1594,89.6672,270.448,9.9069e-05,1.289e-05,0.0,0 STARLINK-4141,1 53138U 22083G   24168.20302222  .00001289  00000-0  99069-4 0  9996,2 53138  53.2175 124.1594 0001393  89.6672 270.4480 15.08845874106726,6917.862,95.437,540.691,538.764,0.0
53138.0,STARLINK-4141,PAYLOAD,2024-06-16 20:46:13,15.08836778,0.0001936,53.2171,121.1846,87.5887,272.5326,5.2916e-05,5.54e-06,0.0,0 STARLINK-4141,1 53138U 22083G   24168.86542902  .00000554  00000-0  52916-4 0  9993,2 53138  53.2171 121.1846 0001936  87.5887 272.5326 15.08836778106823,6917.89,95.438,541.095,538.416,0.0
53138.0,STARLINK-4141,PAYLOAD,2024-06-17 20:37:00,15.08837735,0.0001484,53.218,116.7224,103.146,256.9697,1.319e-05,-7.8e-07,0.0,0 STARLINK-4141,1 53138U 22083G   24169.85902959 -.00000078  00000-0  13190-4 0  9998,2 53138  53.2180 116.7224 0001484 103.1460 256.9697 15.08837735106970,6917.887,95.438,540.779,538.726,0.0
53138.0,STARLINK-4141,PAYLOAD,2024-06-18 02:58:32,15.08841889,0.0001475,53.2177,115.5337,99.0236,261.0923,-5.2082e-06,-3.71e-06,0.0,0 STARLINK-4141,1 53138U 22083G   24170.12398831 -.00000371  00000-0 -52082-5 0  9999,2 53138  53.2177 115.5337 0001475  99.0236 261.0923 15.08841889106864,6917.875,95.437,540.76,538.719,0.0
53138.0,STARLINK-4141,PAYLOAD,2024-06-18 06:09:18,15.08843906,0.0001479,53.2175,114.9392,96.778,263.3381,1.8447e-06,-2.59e-06,0.0,0 STARLINK-4141,1 53138U 22083G   24170.25646687 -.00000259  00000-0  18447-5 0  9999,2 53138  53.2175 114.9392 0001479  96.7780 263.3381 15.08843906107033,6917.868,95.437,540.757,538.71,0.0
53138.0,STARLINK-4141,PAYLOAD,2024-06-19 02:49:20,15.08830075,0.0001473,53.2168,111.0745,95.5618,264.5542,9.8115e-05,1.273e-05,0.0,0 STARLINK-4141,1 53138U 22083G   24171.11759483  .00001273  00000-0  98115-4 0  9999,2 53138  53.2168 111.0745 0001473  95.5618 264.5542 15.08830075107019,6917.911,95.438,540.795,538.757,0.0
53138.0,STARLINK-4141,PAYLOAD,2024-06-19 06:00:06,15.08831693,0.000141,53.2171,110.4797,97.0914,263.0238,6.8104e-05,7.96e-06,0.0,0 STARLINK-4141,1 53138U 22083G   24171.25007497  .00000796  00000-0  68104-4 0  9999,2 53138  53.2171 110.4797 0001410  97.0914 263.0238 15.08831693107181,6917.906,95.438,540.746,538.795,0.0
53138.0,STARLINK-4141,PAYLOAD,2024-06-20 02:40:09,15.08817681,0.0001381,53.2171,106.6137,88.4584,271.6566,-6.8232e-05,-1.373e-05,0.0,0 STARLINK-4141,1 53138U 22083G   24172.11121690 -.00001373  00000-0 -68232-4 0  9993,2 53138  53.2171 106.6137 0001381  88.4584 271.6566 15.08817681107168,6917.949,95.439,540.769,538.858,0.0
53138.0,STARLINK-4141,PAYLOAD,2024-06-20 05:50:55,15.08819878,0.0001314,53.2174,106.0182,84.0046,276.1096,-9.4714e-05,-1.794e-05,0.0,0 STARLINK-4141,1 53138U 22083G   24172.24369817 -.00001794  00000-0 -94714-4 0  9993,2 53138  53.2174 106.0182 0001314  84.0046 276.1096 15.08819878107333,6917.942,95.439,540.716,538.898,0.0
53138.0,STARLINK-4141,PAYLOAD,2024-06-20 23:20:09,15.08832811,0.0001317,53.2181,102.7491,87.7678,272.3465,6.5002e-05,7.47e-06,0.0,0 STARLINK-4141,1 53138U 22083G   24172.97233100  .00000747  00000-0  65002-4 0  9991,2 53138  53.2181 102.7491 0001317  87.7678 272.3465 15.08832811107296,6917.902,95.438,540.678,538.856,0.0
53138.0,STARLINK-4141,PAYLOAD,2024-06-21 02:30:55,15.0883774,0.0001287,53.2177,102.155,90.1881,269.9259,0.00011181,1.492e-05,0.0,0 STARLINK-4141,1 53138U 22083G   24173.10480731  .00001492  00000-0  11181-3 0  9997,2 53138  53.2177 102.1550 0001287  90.1881 269.9259 15.08837740107469,6917.887,95.438,540.643,538.862,0.0
53138.0,STARLINK-4141,PAYLOAD,2024-06-21 18:24:46,15.08840615,0.0001339,53.2177,99.1805,85.0979,275.0166,0.00028782,4.296e-05,0.0,0 STARLINK-4141,1 53138U 22083G   24173.76720330  .00004296  00000-0  28782-3 0  9991,2 53138  53.2177  99.1805 0001339  85.0979 275.0166 15.08840615107411,6917.879,95.438,540.67,538.817,0.0
